STARLINK-36429          
1 67356U 26003Y   26024.25002315 -.00028750  00000+0 -18470-3 0  9996
2 67356  42.9987 122.5214 0001777 270.2244 177.2294 15.75035972  3524
STARLINK-36456          
1 67357U 26003Z   26024.25002315 -.00031383  00000+0 -20175-3 0  9998
2 67357  42.9986 122.5114 0001415 272.4827 178.7807 15.75061275  3535
STARLINK-36466          
1 67358U 26003AA  26024.25002315  .00100314  00000+0  65103-3 0  9998
2 67358  42.9989 122.5063 0001520 252.3720 200.8900 15.74946259  3532
STARLINK-36499          
1 67359U 26003AB  26024.25002315 -.00039240  00000+0 -25334-3 0  9992
2 67359  42.9987 122.5014 0001626 259.6176 195.4920 15.75054794  3535
STARLINK-36469          
1 67360U 26003AC  26024.25002315 -.00017325  00000+0 -10990-3 0  9996
2 67360  42.9987 122.4968 0001492 246.1319 210.8991 15.75040529  3536
STARLINK-35306          
1 67361U 26003AD  26024.25002315 -.00015123  00000+0 -95505-4 0  9997
2 67361  42.9986 122.4911 0001537 244.6811 214.2659 15.75041221  3476
STARLINK-36428          
1 67362U 26003AE  26024.25002315  .00056671  00000+0  37002-3 0  9996
2 67362  42.9987 122.4862 0001720 261.1129 199.7587 15.75009789  3530
TWILIGHT A              
1 67363U 26004A   26024.26519864  .00005235  00000+0  59143-3 0  9991
2 67363  97.7993  25.2043 0007428 250.9195 109.1217 14.86912330  1884
TWILIGHT B              
1 67364U 26004B   26024.26456101  .00006177  00000+0  69468-3 0  9993
2 67364  97.7997  25.2049 0007283 246.0226 114.0228 14.87027077  1899
TWILIGHT C              
1 67365U 26004C   26024.12977982  .00006927  00000+0  77792-3 0  9996
2 67365  97.7971  25.0729 0006941 252.8466 107.1990 14.87043880  1873
TWILIGHT D              
1 67366U 26004D   26024.26404731  .00006578  00000+0  73879-3 0  9993
2 67366  97.8028  25.2063 0007347 238.4924 121.5575 14.87059880  1899
TWILIGHT E              
1 67367U 26004E   26024.26345069  .00007520  00000+0  84169-3 0  9994
2 67367  97.7960  25.2060 0006427 254.7710 105.2796 14.87157461  1891
