CCSDS_OMM_VERS = 2.0
CREATION_DATE  = 
ORIGINATOR     = 

OBJECT_NAME    = STARLINK-36429
OBJECT_ID      = 2026-003Y
CENTER_NAME    = EARTH
REF_FRAME      = TEME
TIME_SYSTEM    = UTC
MEAN_ELEMENT_THEORY = SGP/SGP4

EPOCH          = 2026-01-24T06:00:02.000160
MEAN_MOTION    = 15.75035972
ECCENTRICITY   = .00017772
INCLINATION    = 42.9987
RA_OF_ASC_NODE = 122.5214
ARG_OF_PERICENTER = 270.2244
MEAN_ANOMALY   = 177.2294

EPHEMERIS_TYPE = 0
CLASSIFICATION_TYPE = U
NORAD_CAT_ID   = 67356
ELEMENT_SET_NO = 999
REV_AT_EPOCH   = 352
BSTAR          = -.1847018E-3
MEAN_MOTION_DOT = -.2875E-3
MEAN_MOTION_DDOT = 0

CCSDS_OMM_VERS = 2.0
CREATION_DATE  = 
ORIGINATOR     = 

OBJECT_NAME    = STARLINK-36456
OBJECT_ID      = 2026-003Z
CENTER_NAME    = EARTH
REF_FRAME      = TEME
TIME_SYSTEM    = UTC
MEAN_ELEMENT_THEORY = SGP/SGP4

EPOCH          = 2026-01-24T06:00:02.000160
MEAN_MOTION    = 15.75061275
ECCENTRICITY   = .00014158
INCLINATION    = 42.9986
RA_OF_ASC_NODE = 122.5114
ARG_OF_PERICENTER = 272.4827
MEAN_ANOMALY   = 178.7807

EPHEMERIS_TYPE = 0
CLASSIFICATION_TYPE = U
NORAD_CAT_ID   = 67357
ELEMENT_SET_NO = 999
REV_AT_EPOCH   = 353
BSTAR          = -.20175251E-3
MEAN_MOTION_DOT = -.31383E-3
MEAN_MOTION_DDOT = 0

CCSDS_OMM_VERS = 2.0
CREATION_DATE  = 
ORIGINATOR     = 

OBJECT_NAME    = STARLINK-36466
OBJECT_ID      = 2026-003AA
CENTER_NAME    = EARTH
REF_FRAME      = TEME
TIME_SYSTEM    = UTC
MEAN_ELEMENT_THEORY = SGP/SGP4

EPOCH          = 2026-01-24T06:00:02.000160
MEAN_MOTION    = 15.74946259
ECCENTRICITY   = .00015209
INCLINATION    = 42.9989
RA_OF_ASC_NODE = 122.5063
ARG_OF_PERICENTER = 252.3720
MEAN_ANOMALY   = 200.8900

EPHEMERIS_TYPE = 0
CLASSIFICATION_TYPE = U
NORAD_CAT_ID   = 67358
ELEMENT_SET_NO = 999
REV_AT_EPOCH   = 353
BSTAR          = .65102904E-3
MEAN_MOTION_DOT = .100314E-2
MEAN_MOTION_DDOT = 0

CCSDS_OMM_VERS = 2.0
CREATION_DATE  = 
ORIGINATOR     = 

OBJECT_NAME    = STARLINK-36499
OBJECT_ID      = 2026-003AB
CENTER_NAME    = EARTH
REF_FRAME      = TEME
TIME_SYSTEM    = UTC
MEAN_ELEMENT_THEORY = SGP/SGP4

EPOCH          = 2026-01-24T06:00:02.000160
MEAN_MOTION    = 15.75054794
ECCENTRICITY   = .00016269
INCLINATION    = 42.9987
RA_OF_ASC_NODE = 122.5014
ARG_OF_PERICENTER = 259.6176
MEAN_ANOMALY   = 195.4920

EPHEMERIS_TYPE = 0
CLASSIFICATION_TYPE = U
NORAD_CAT_ID   = 67359
ELEMENT_SET_NO = 999
REV_AT_EPOCH   = 353
BSTAR          = -.25334369E-3
MEAN_MOTION_DOT = -.3924E-3
MEAN_MOTION_DDOT = 0

CCSDS_OMM_VERS = 2.0
CREATION_DATE  = 
ORIGINATOR     = 

OBJECT_NAME    = STARLINK-36469
OBJECT_ID      = 2026-003AC
CENTER_NAME    = EARTH
REF_FRAME      = TEME
TIME_SYSTEM    = UTC
MEAN_ELEMENT_THEORY = SGP/SGP4

EPOCH          = 2026-01-24T06:00:02.000160
MEAN_MOTION    = 15.75040529
ECCENTRICITY   = .00014929
INCLINATION    = 42.9987
RA_OF_ASC_NODE = 122.4968
ARG_OF_PERICENTER = 246.1319
MEAN_ANOMALY   = 210.8991

EPHEMERIS_TYPE = 0
CLASSIFICATION_TYPE = U
NORAD_CAT_ID   = 67360
ELEMENT_SET_NO = 999
REV_AT_EPOCH   = 353
BSTAR          = -.10989609E-3
MEAN_MOTION_DOT = -.17325E-3
MEAN_MOTION_DDOT = 0

CCSDS_OMM_VERS = 2.0
CREATION_DATE  = 
ORIGINATOR     = 

OBJECT_NAME    = STARLINK-35306
OBJECT_ID      = 2026-003AD
CENTER_NAME    = EARTH
REF_FRAME      = TEME
TIME_SYSTEM    = UTC
MEAN_ELEMENT_THEORY = SGP/SGP4

EPOCH          = 2026-01-24T06:00:02.000160
MEAN_MOTION    = 15.75041221
ECCENTRICITY   = .00015373
INCLINATION    = 42.9986
RA_OF_ASC_NODE = 122.4911
ARG_OF_PERICENTER = 244.6811
MEAN_ANOMALY   = 214.2659

EPHEMERIS_TYPE = 0
CLASSIFICATION_TYPE = U
NORAD_CAT_ID   = 67361
ELEMENT_SET_NO = 999
REV_AT_EPOCH   = 347
BSTAR          = -.95504966E-4
MEAN_MOTION_DOT = -.15123E-3
MEAN_MOTION_DDOT = 0

CCSDS_OMM_VERS = 2.0
CREATION_DATE  = 
ORIGINATOR     = 

OBJECT_NAME    = STARLINK-36428
OBJECT_ID      = 2026-003AE
CENTER_NAME    = EARTH
REF_FRAME      = TEME
TIME_SYSTEM    = UTC
MEAN_ELEMENT_THEORY = SGP/SGP4

EPOCH          = 2026-01-24T06:00:02.000160
MEAN_MOTION    = 15.75009789
ECCENTRICITY   = .00017204
INCLINATION    = 42.9987
RA_OF_ASC_NODE = 122.4862
ARG_OF_PERICENTER = 261.1129
MEAN_ANOMALY   = 199.7587

EPHEMERIS_TYPE = 0
CLASSIFICATION_TYPE = U
NORAD_CAT_ID   = 67362
ELEMENT_SET_NO = 999
REV_AT_EPOCH   = 353
BSTAR          = .37001942E-3
MEAN_MOTION_DOT = .56671E-3
MEAN_MOTION_DDOT = 0

CCSDS_OMM_VERS = 2.0
CREATION_DATE  = 
ORIGINATOR     = 

OBJECT_NAME    = TWILIGHT A
OBJECT_ID      = 2026-004A
CENTER_NAME    = EARTH
REF_FRAME      = TEME
TIME_SYSTEM    = UTC
MEAN_ELEMENT_THEORY = SGP/SGP4

EPOCH          = 2026-01-24T06:21:53.162496
MEAN_MOTION    = 14.86912330
ECCENTRICITY   = .00074284
INCLINATION    = 97.7993
RA_OF_ASC_NODE = 25.2043
ARG_OF_PERICENTER = 250.9195
MEAN_ANOMALY   = 109.1217

EPHEMERIS_TYPE = 0
CLASSIFICATION_TYPE = U
NORAD_CAT_ID   = 67363
ELEMENT_SET_NO = 999
REV_AT_EPOCH   = 188
BSTAR          = .59143385E-3
MEAN_MOTION_DOT = .5235E-4
MEAN_MOTION_DDOT = 0

CCSDS_OMM_VERS = 2.0
CREATION_DATE  = 
ORIGINATOR     = 

OBJECT_NAME    = TWILIGHT B
OBJECT_ID      = 2026-004B
CENTER_NAME    = EARTH
REF_FRAME      = TEME
TIME_SYSTEM    = UTC
MEAN_ELEMENT_THEORY = SGP/SGP4

EPOCH          = 2026-01-24T06:20:58.071264
MEAN_MOTION    = 14.87027077
ECCENTRICITY   = .00072839
INCLINATION    = 97.7997
RA_OF_ASC_NODE = 25.2049
ARG_OF_PERICENTER = 246.0226
MEAN_ANOMALY   = 114.0228

EPHEMERIS_TYPE = 0
CLASSIFICATION_TYPE = U
NORAD_CAT_ID   = 67364
ELEMENT_SET_NO = 999
REV_AT_EPOCH   = 189
BSTAR          = .69467761E-3
MEAN_MOTION_DOT = .6177E-4
MEAN_MOTION_DDOT = 0

CCSDS_OMM_VERS = 2.0
CREATION_DATE  = 
ORIGINATOR     = 

OBJECT_NAME    = TWILIGHT C
OBJECT_ID      = 2026-004C
CENTER_NAME    = EARTH
REF_FRAME      = TEME
TIME_SYSTEM    = UTC
MEAN_ELEMENT_THEORY = SGP/SGP4

EPOCH          = 2026-01-24T03:06:52.976448
MEAN_MOTION    = 14.87043880
ECCENTRICITY   = .00069411
INCLINATION    = 97.7971
RA_OF_ASC_NODE = 25.0729
ARG_OF_PERICENTER = 252.8466
MEAN_ANOMALY   = 107.1990

EPHEMERIS_TYPE = 0
CLASSIFICATION_TYPE = U
NORAD_CAT_ID   = 67365
ELEMENT_SET_NO = 999
REV_AT_EPOCH   = 187
BSTAR          = .77791669E-3
MEAN_MOTION_DOT = .6927E-4
MEAN_MOTION_DDOT = 0

CCSDS_OMM_VERS = 2.0
CREATION_DATE  = 
ORIGINATOR     = 

OBJECT_NAME    = TWILIGHT D
OBJECT_ID      = 2026-004D
CENTER_NAME    = EARTH
REF_FRAME      = TEME
TIME_SYSTEM    = UTC
MEAN_ELEMENT_THEORY = SGP/SGP4

EPOCH          = 2026-01-24T06:20:13.687584
MEAN_MOTION    = 14.87059880
ECCENTRICITY   = .00073473
INCLINATION    = 97.8028
RA_OF_ASC_NODE = 25.2063
ARG_OF_PERICENTER = 238.4924
MEAN_ANOMALY   = 121.5575

EPHEMERIS_TYPE = 0
CLASSIFICATION_TYPE = U
NORAD_CAT_ID   = 67366
ELEMENT_SET_NO = 999
REV_AT_EPOCH   = 189
BSTAR          = .7387855E-3
MEAN_MOTION_DOT = .6578E-4
MEAN_MOTION_DDOT = 0

CCSDS_OMM_VERS = 2.0
CREATION_DATE  = 
ORIGINATOR     = 

OBJECT_NAME    = TWILIGHT E
OBJECT_ID      = 2026-004E
CENTER_NAME    = EARTH
REF_FRAME      = TEME
TIME_SYSTEM    = UTC
MEAN_ELEMENT_THEORY = SGP/SGP4

EPOCH          = 2026-01-24T06:19:22.139616
MEAN_MOTION    = 14.87157461
ECCENTRICITY   = .00064274
INCLINATION    = 97.7960
RA_OF_ASC_NODE = 25.2060
ARG_OF_PERICENTER = 254.7710
MEAN_ANOMALY   = 105.2796

EPHEMERIS_TYPE = 0
CLASSIFICATION_TYPE = U
NORAD_CAT_ID   = 67367
ELEMENT_SET_NO = 999
REV_AT_EPOCH   = 189
BSTAR          = .84168756E-3
MEAN_MOTION_DOT = .752E-4
MEAN_MOTION_DDOT = 0

